start=new Date('2023-07-02T00:00:00.000Z').valueOf();
sats=[{"SITE":"AFETR","PERIOD":"91.640","TLE_LINE1":"1 55701U 23026G   23182.64580918 -.00002702  00000-0 -17164-4 0  9994","SEMIMAJOR_AXIS":"6733.135","CLASSIFICATION_TYPE":"U","MEAN_MOTION_DOT":"-0.00002702","COUNTRY_CODE":"US","MEAN_MOTION":"15.71363998","LAUNCH_DATE":"2023-02-27","MEAN_ANOMALY":"112.5029","GP_ID":"234661051","FILE":"3947203","DECAY_DATE":null,"CENTER_NAME":"EARTH","PERIAPSIS":"354.518","EPOCH":"2023-07-01T15:29:57.913152","RA_OF_ASC_NODE":"259.0939","INCLINATION":"43.0006","TLE_LINE2":"2 55701  43.0006 259.0939 0000715 247.5763 112.5029 15.71363998 20461","APOAPSIS":"355.481","OBJECT_NAME":"STARLINK-30065","ECCENTRICITY":"0.00007150","OBJECT_ID":"2023-026G","REF_FRAME":"TEME","TIME_SYSTEM":"UTC","ARG_OF_PERICENTER":"247.5763","OBJECT_TYPE":"PAYLOAD","NORAD_CAT_ID":"55701","RCS_SIZE":"LARGE","EPHEMERIS_TYPE":"0","ELEMENT_SET_NO":"999","MEAN_ELEMENT_THEORY":"SGP4","MEAN_MOTION_DDOT":"0.0000000000000","REV_AT_EPOCH":"2046","BSTAR":"-0.00001716400000"},{"ARG_OF_PERICENTER":"282.8824","OBJECT_TYPE":"PAYLOAD","TIME_SYSTEM":"UTC","ECCENTRICITY":"0.00013780","OBJECT_ID":"2023-026H","REF_FRAME":"TEME","NORAD_CAT_ID":"55702","EPHEMERIS_TYPE":"0","ELEMENT_SET_NO":"999","RCS_SIZE":"LARGE","REV_AT_EPOCH":"2012","BSTAR":"-0.00001191000000","MEAN_MOTION_DDOT":"0.0000000000000","MEAN_ELEMENT_THEORY":"SGP4","CLASSIFICATION_TYPE":"U","SEMIMAJOR_AXIS":"6856.206","TLE_LINE1":"1 55702U 23026H   23182.67676661 -.00000612  00000-0 -11910-4 0  9990","PERIOD":"94.164","SITE":"AFETR","MEAN_ANOMALY":"77.1874","MEAN_MOTION":"15.29244677","LAUNCH_DATE":"2023-02-27","COUNTRY_CODE":"US","MEAN_MOTION_DOT":"-0.00000612","PERIAPSIS":"477.126","EPOCH":"2023-07-01T16:14:32.635104","DECAY_DATE":null,"GP_ID":"234661058","FILE":"3947203","CENTER_NAME":"EARTH","OBJECT_NAME":"STARLINK-30042","TLE_LINE2":"2 55702  43.0032 289.1929 0001378 282.8824  77.1874 15.29244677 20122","APOAPSIS":"479.016","RA_OF_ASC_NODE":"289.1929","INCLINATION":"43.0032"},{"TLE_LINE2":"2 55704  42.9994 289.5328 0000914 270.7449  89.3298 15.29244093 20116","APOAPSIS":"478.699","RA_OF_ASC_NODE":"289.5328","INCLINATION":"42.9994","OBJECT_NAME":"STARLINK-30051","PERIAPSIS":"477.446","EPOCH":"2023-07-01T14:34:05.092896","GP_ID":"234661060","DECAY_DATE":null,"FILE":"3947209","CENTER_NAME":"EARTH","COUNTRY_CODE":"US","MEAN_MOTION_DOT":"0.00001543","MEAN_ANOMALY":"89.3298","MEAN_MOTION":"15.29244093","LAUNCH_DATE":"2023-02-27","PERIOD":"94.164","SITE":"AFETR","CLASSIFICATION_TYPE":"U","SEMIMAJOR_AXIS":"6856.208","TLE_LINE1":"1 55704U 23026K   23182.60700339  .00001543  00000-0  62486-4 0  9991","MEAN_ELEMENT_THEORY":"SGP4","REV_AT_EPOCH":"2011","BSTAR":"0.00006248600000","MEAN_MOTION_DDOT":"0.0000000000000","RCS_SIZE":"LARGE","EPHEMERIS_TYPE":"0","ELEMENT_SET_NO":"999","NORAD_CAT_ID":"55704","TIME_SYSTEM":"UTC","OBJECT_ID":"2023-026K","ECCENTRICITY":"0.00009140","REF_FRAME":"TEME","ARG_OF_PERICENTER":"270.7449","OBJECT_TYPE":"PAYLOAD"},{"MEAN_ELEMENT_THEORY":"SGP4","MEAN_MOTION_DDOT":"0.0000000000000","REV_AT_EPOCH":"2044","BSTAR":"0.00039095000000","RCS_SIZE":"LARGE","EPHEMERIS_TYPE":"0","ELEMENT_SET_NO":"999","NORAD_CAT_ID":"55705","OBJECT_ID":"2023-026L","ECCENTRICITY":"0.00012470","REF_FRAME":"TEME","TIME_SYSTEM":"UTC","ARG_OF_PERICENTER":"229.0018","OBJECT_TYPE":"PAYLOAD","RA_OF_ASC_NODE":"259.8601","INCLINATION":"42.9983","TLE_LINE2":"2 55705  42.9983 259.8601 0001247 229.0018 131.0742 15.71383126 20441","APOAPSIS":"355.785","OBJECT_NAME":"STARLINK-30057","FILE":"3946928","GP_ID":"234654157","DECAY_DATE":null,"CENTER_NAME":"EARTH","PERIAPSIS":"354.106","EPOCH":"2023-07-01T12:26:01.777632","MEAN_MOTION_DOT":"0.00051189","COUNTRY_CODE":"US","MEAN_MOTION":"15.71383126","LAUNCH_DATE":"2023-02-27","MEAN_ANOMALY":"131.0742","SITE":"AFETR","PERIOD":"91.639","SEMIMAJOR_AXIS":"6733.080","TLE_LINE1":"1 55705U 23026L   23182.51807613  .00051189  00000-0  39095-3 0  9995","CLASSIFICATION_TYPE":"U"},{"FILE":"3947209","GP_ID":"234661188","DECAY_DATE":null,"CENTER_NAME":"EARTH","PERIAPSIS":"354.278","EPOCH":"2023-07-01T13:57:59.839776","OBJECT_NAME":"STARLINK-30060","INCLINATION":"42.9985","RA_OF_ASC_NODE":"259.4838","TLE_LINE2":"2 55707  42.9985 259.4838 0001089 322.1949  37.8842 15.71360052 20453","APOAPSIS":"355.744","SEMIMAJOR_AXIS":"6733.146","TLE_LINE1":"1 55707U 23026N   23182.58194259  .00012899  00000-0  10164-3 0  9990","CLASSIFICATION_TYPE":"U","SITE":"AFETR","PERIOD":"91.640","MEAN_MOTION":"15.71360052","LAUNCH_DATE":"2023-02-27","MEAN_ANOMALY":"37.8842","MEAN_MOTION_DOT":"0.00012899","COUNTRY_CODE":"US","EPHEMERIS_TYPE":"0","ELEMENT_SET_NO":"999","RCS_SIZE":"LARGE","MEAN_MOTION_DDOT":"0.0000000000000","REV_AT_EPOCH":"2045","BSTAR":"0.00010164000000","MEAN_ELEMENT_THEORY":"SGP4","ARG_OF_PERICENTER":"322.1949","OBJECT_TYPE":"PAYLOAD","ECCENTRICITY":"0.00010890","OBJECT_ID":"2023-026N","REF_FRAME":"TEME","TIME_SYSTEM":"UTC","NORAD_CAT_ID":"55707"},{"PERIAPSIS":"476.563","EPOCH":"2023-07-01T08:07:33.234240","FILE":"3946915","GP_ID":"234653619","DECAY_DATE":null,"CENTER_NAME":"EARTH","TLE_LINE2":"2 55708  43.0021 290.9581 0002152 274.8193  85.2413 15.29255530 20085","APOAPSIS":"479.514","RA_OF_ASC_NODE":"290.9581","INCLINATION":"43.0021","OBJECT_NAME":"STARLINK-30058","PERIOD":"94.163","SITE":"AFETR","CLASSIFICATION_TYPE":"U","SEMIMAJOR_AXIS":"6856.174","TLE_LINE1":"1 55708U 23026P   23182.33857910 -.00000736  00000-0 -16184-4 0  9992","COUNTRY_CODE":"US","MEAN_MOTION_DOT":"-0.00000736","MEAN_ANOMALY":"85.2413","MEAN_MOTION":"15.29255530","LAUNCH_DATE":"2023-02-27","RCS_SIZE":"LARGE","EPHEMERIS_TYPE":"0","ELEMENT_SET_NO":"999","MEAN_ELEMENT_THEORY":"SGP4","REV_AT_EPOCH":"2008","BSTAR":"-0.00001618400000","MEAN_MOTION_DDOT":"0.0000000000000","TIME_SYSTEM":"UTC","ECCENTRICITY":"0.00021520","OBJECT_ID":"2023-026P","REF_FRAME":"TEME","ARG_OF_PERICENTER":"274.8193","OBJECT_TYPE":"PAYLOAD","NORAD_CAT_ID":"55708"},{"COUNTRY_CODE":"US","MEAN_MOTION_DOT":"-0.00011553","MEAN_ANOMALY":"70.0652","LAUNCH_DATE":"2023-02-27","MEAN_MOTION":"15.71301161","PERIOD":"91.644","SITE":"AFETR","CLASSIFICATION_TYPE":"U","TLE_LINE1":"1 55709U 23026Q   23182.64490828 -.00011553  00000-0 -84970-4 0  9995","SEMIMAJOR_AXIS":"6733.314","APOAPSIS":"356.257","TLE_LINE2":"2 55709  43.0003 259.0806 0001600 290.0043  70.0652 15.71301161 20461","RA_OF_ASC_NODE":"259.0806","INCLINATION":"43.0003","OBJECT_NAME":"STARLINK-30047","EPOCH":"2023-07-01T15:28:40.075392","PERIAPSIS":"354.102","CENTER_NAME":"EARTH","GP_ID":"234661190","FILE":"3947209","DECAY_DATE":null,"NORAD_CAT_ID":"55709","TIME_SYSTEM":"UTC","REF_FRAME":"TEME","OBJECT_ID":"2023-026Q","ECCENTRICITY":"0.00016000","OBJECT_TYPE":"PAYLOAD","ARG_OF_PERICENTER":"290.0043","MEAN_ELEMENT_THEORY":"SGP4","BSTAR":"-0.00008497000000","REV_AT_EPOCH":"2046","MEAN_MOTION_DDOT":"0.0000000000000","RCS_SIZE":"LARGE","ELEMENT_SET_NO":"999","EPHEMERIS_TYPE":"0"},{"BSTAR":"-0.00004228400000","REV_AT_EPOCH":"2040","MEAN_MOTION_DDOT":"0.0000000000000","MEAN_ELEMENT_THEORY":"SGP4","ELEMENT_SET_NO":"999","EPHEMERIS_TYPE":"0","RCS_SIZE":"LARGE","NORAD_CAT_ID":"55710","OBJECT_TYPE":"PAYLOAD","ARG_OF_PERICENTER":"322.0655","TIME_SYSTEM":"UTC","REF_FRAME":"TEME","ECCENTRICITY":"0.00009990","OBJECT_ID":"2023-026R","OBJECT_NAME":"STARLINK-30046","APOAPSIS":"355.827","TLE_LINE2":"2 55710  42.9980 261.5641 0000999 322.0655  38.0142 15.71309844 20403","RA_OF_ASC_NODE":"261.5641","INCLINATION":"42.9980","EPOCH":"2023-07-01T06:53:11.137344","PERIAPSIS":"354.482","CENTER_NAME":"EARTH","DECAY_DATE":null,"GP_ID":"234653532","FILE":"3946915","MEAN_ANOMALY":"38.0142","LAUNCH_DATE":"2023-02-27","MEAN_MOTION":"15.71309844","COUNTRY_CODE":"US","MEAN_MOTION_DOT":"-0.00005981","CLASSIFICATION_TYPE":"U","TLE_LINE1":"1 55710U 23026R   23182.28693446 -.00005981  00000-0 -42284-4 0  9998","SEMIMAJOR_AXIS":"6733.289","PERIOD":"91.643","SITE":"AFETR"},{"NORAD_CAT_ID":"55712","TIME_SYSTEM":"UTC","ECCENTRICITY":"0.00021110","OBJECT_ID":"2023-026T","REF_FRAME":"TEME","ARG_OF_PERICENTER":"346.1718","OBJECT_TYPE":"PAYLOAD","MEAN_ELEMENT_THEORY":"SGP4","REV_AT_EPOCH":"2050","BSTAR":"0.00163920000000","MEAN_MOTION_DDOT":"0.0000000000000","RCS_SIZE":"LARGE","EPHEMERIS_TYPE":"0","ELEMENT_SET_NO":"999","COUNTRY_CODE":"US","MEAN_MOTION_DOT":"0.00231700","MEAN_ANOMALY":"107.3404","MEAN_MOTION":"15.72514188","LAUNCH_DATE":"2023-02-27","PERIOD":"91.573","SITE":"AFETR","CLASSIFICATION_TYPE":"U","SEMIMAJOR_AXIS":"6729.851","TLE_LINE1":"1 55712U 23026T   23182.91667824  .00231700  00000-0  16392-2 0  9998","TLE_LINE2":"2 55712  42.9992 257.4650 0002111 346.1718 107.3404 15.72514188 20509","APOAPSIS":"353.137","RA_OF_ASC_NODE":"257.4650","INCLINATION":"42.9992","OBJECT_NAME":"STARLINK-30037","PERIAPSIS":"350.295","EPOCH":"2023-07-01T22:00:00.999936","DECAY_DATE":null,"GP_ID":"234654118","FILE":"3946926","CENTER_NAME":"EARTH"},{"OBJECT_NAME":"STARLINK-30063","TLE_LINE2":"2 55713  43.0000 258.5837 0002441 288.6470  71.4132 15.71383692 20469","APOAPSIS":"356.587","INCLINATION":"43.0000","RA_OF_ASC_NODE":"258.5837","PERIAPSIS":"353.300","EPOCH":"2023-07-01T13:56:13.451136","DECAY_DATE":null,"GP_ID":"234654287","FILE":"3946925","CENTER_NAME":"EARTH","MEAN_ANOMALY":"71.4132","MEAN_MOTION":"15.71383692","LAUNCH_DATE":"2023-02-27","COUNTRY_CODE":"US","MEAN_MOTION_DOT":"0.00004053","CLASSIFICATION_TYPE":"U","TLE_LINE1":"1 55713U 23026U   23182.58071124  .00004053  00000-0  34302-4 0  9996","SEMIMAJOR_AXIS":"6733.079","PERIOD":"91.639","SITE":"AFETR","REV_AT_EPOCH":"2046","BSTAR":"0.00003430200000","MEAN_MOTION_DDOT":"0.0000000000000","MEAN_ELEMENT_THEORY":"SGP4","EPHEMERIS_TYPE":"0","ELEMENT_SET_NO":"999","RCS_SIZE":"LARGE","NORAD_CAT_ID":"55713","ARG_OF_PERICENTER":"288.6470","OBJECT_TYPE":"PAYLOAD","TIME_SYSTEM":"UTC","ECCENTRICITY":"0.00024410","OBJECT_ID":"2023-026U","REF_FRAME":"TEME"}];
